{
    "links": {
        "self": "http://www.neowsapp.com/rest/v1/neo/3699513?api_key=iIulBulltgU6a56xZRHN4H3l9WmuAYTsLGpBGhQ2"
    },
    "id": "3699513",
    "neo_reference_id": "3699513",
    "name": "(2014 WN365)",
    "designation": "2014 WN365",
    "nasa_jpl_url": "http://ssd.jpl.nasa.gov/sbdb.cgi?sstr=3699513",
    "absolute_magnitude_h": 25.0,
    "estimated_diameter": {
        "kilometers": {
            "estimated_diameter_min": 0.02658,
            "estimated_diameter_max": 0.0594346868
        },
        "meters": {
            "estimated_diameter_min": 26.58,
            "estimated_diameter_max": 59.4346868419
        },
        "miles": {
            "estimated_diameter_min": 0.0165160412,
            "estimated_diameter_max": 0.0369309908
        },
        "feet": {
            "estimated_diameter_min": 87.2047272,
            "estimated_diameter_max": 194.9956979785
        }
    },
    "is_potentially_hazardous_asteroid": false,
    "close_approach_data": [
        {
            "close_approach_date": "2014-12-07",
            "close_approach_date_full": "2014-Dec-07 13:34",
            "epoch_date_close_approach": 1417959240000,
            "relative_velocity": {
                "kilometers_per_second": "8.1242897959",
                "kilometers_per_hour": "29247.4432653056",
                "miles_per_hour": "18173.2238444895"
            },
            "miss_distance": {
                "astronomical": "0.0406640491",
                "lunar": "15.8183150999",
                "kilometers": "6083255.130935417",
                "miles": "3779959.4593140746"
            },
            "orbiting_body": "Earth"
        }
    ],
    "orbital_data": {
        "orbit_id": "3",
        "orbit_determination_date": "2017-04-06 08:37:05",
        "first_observation_date": "2014-11-22",
        "last_observation_date": "2014-11-29",
        "data_arc_in_days": 7,
        "observations_used": 15,
        "orbit_uncertainty": "9",
        "minimum_orbit_intersection": ".0239443",
        "jupiter_tisserand_invariant": "3.392",
        "epoch_osculation": "2456986.5",
        "eccentricity": ".5582789502269857",
        "semi_major_axis": "2.262079210233921",
        "inclination": "3.532835163421374",
        "ascending_node_longitude": "252.816644632628",
        "orbital_period": "1242.682376812475",
        "perihelion_distance": ".9992080034142388",
        "perihelion_argument": "202.1160886448945",
        "aphelion_distance": "3.524950417053604",
        "perihelion_time": "2457014.193109380185",
        "mean_anomaly": "351.9774195217616",
        "mean_motion": ".2896959083972952",
        "equinox": "J2000",
        "orbit_class": {
            "orbit_class_type": "APO",
            "orbit_class_description": "Near-Earth asteroid orbits which cross the Earth’s orbit similar to that of 1862 Apollo",
            "orbit_class_range": "a (semi-major axis) > 1.0 AU; q (perihelion) < 1.017 AU"
        }
    },
    "is_sentry_object": false
}